[{"OBJECT_NAME":"ONEWEB-0044","OBJECT_ID":"2020-008V","EPOCH":"2025-09-12T23:28:22.191168","MEAN_MOTION":13.10375911,"ECCENTRICITY":0.0001885,"INCLINATION":87.8742,"RA_OF_ASC_NODE":91.5418,"ARG_OF_PERICENTER":79.7673,"MEAN_ANOMALY":280.3667,"EPHEMERIS_TYPE":0,"CLASSIFICATION_TYPE":"U","NORAD_CAT_ID":45150,"ELEMENT_SET_NO":999,"REV_AT_EPOCH":27217,"BSTAR":9.4581638e-5,"MEAN_MOTION_DOT":4.6e-7,"MEAN_MOTION_DDOT":0},{"OBJECT_NAME":"ONEWEB-0045","OBJECT_ID":"2020-008W","EPOCH":"2025-09-13T04:57:11.983680","MEAN_MOTION":13.11416538,"ECCENTRICITY":0.00015672,"INCLINATION":87.8788,"RA_OF_ASC_NODE":76.2149,"ARG_OF_PERICENTER":84.761,"MEAN_ANOMALY":275.3696,"EPHEMERIS_TYPE":0,"CLASSIFICATION_TYPE":"U","NORAD_CAT_ID":45151,"ELEMENT_SET_NO":999,"REV_AT_EPOCH":27410,"BSTAR":-0.00039111394,"MEAN_MOTION_DOT":-1.26e-6,"MEAN_MOTION_DDOT":0},{"OBJECT_NAME":"ONEWEB-0047","OBJECT_ID":"2020-008X","EPOCH":"2025-09-12T23:18:49.386816","MEAN_MOTION":13.10377515,"ECCENTRICITY":0.00017015,"INCLINATION":87.8744,"RA_OF_ASC_NODE":91.5532,"ARG_OF_PERICENTER":82.3518,"MEAN_ANOMALY":277.7803,"EPHEMERIS_TYPE":0,"CLASSIFICATION_TYPE":"U","NORAD_CAT_ID":45152,"ELEMENT_SET_NO":999,"REV_AT_EPOCH":27189,"BSTAR":-0.00069042338,"MEAN_MOTION_DOT":-2.28e-6,"MEAN_MOTION_DDOT":0},{"OBJECT_NAME":"ONEWEB-0048","OBJECT_ID":"2020-008Y","EPOCH":"2025-09-13T06:31:25.624704","MEAN_MOTION":13.10373261,"ECCENTRICITY":0.00016668,"INCLINATION":87.8743,"RA_OF_ASC_NODE":91.5184,"ARG_OF_PERICENTER":86.4545,"MEAN_ANOMALY":273.6773,"EPHEMERIS_TYPE":0,"CLASSIFICATION_TYPE":"U","NORAD_CAT_ID":45153,"ELEMENT_SET_NO":999,"REV_AT_EPOCH":27154,"BSTAR":-0.0015980609,"MEAN_MOTION_DOT":-5.45e-6,"MEAN_MOTION_DDOT":0},{"OBJECT_NAME":"ONEWEB-0049","OBJECT_ID":"2020-008Z","EPOCH":"2025-09-12T19:35:17.841408","MEAN_MOTION":13.10375759,"ECCENTRICITY":0.00021449,"INCLINATION":87.8745,"RA_OF_ASC_NODE":91.601,"ARG_OF_PERICENTER":89.6657,"MEAN_ANOMALY":270.4716,"EPHEMERIS_TYPE":0,"CLASSIFICATION_TYPE":"U","NORAD_CAT_ID":45154,"ELEMENT_SET_NO":999,"REV_AT_EPOCH":27170,"BSTAR":-0.0014472679,"MEAN_MOTION_DOT":-4.93e-6,"MEAN_MOTION_DDOT":0},{"OBJECT_NAME":"ONEWEB-0051","OBJECT_ID":"2020-008AA","EPOCH":"2025-09-12T23:25:06.926304","MEAN_MOTION":13.11415693,"ECCENTRICITY":0.00016373,"INCLINATION":87.8768,"RA_OF_ASC_NODE":76.3,"ARG_OF_PERICENTER":91.464,"MEAN_ANOMALY":268.6676,"EPHEMERIS_TYPE":0,"CLASSIFICATION_TYPE":"U","NORAD_CAT_ID":45155,"ELEMENT_SET_NO":999,"REV_AT_EPOCH":27475,"BSTAR":-0.00020841444,"MEAN_MOTION_DOT":-6.1e-7,"MEAN_MOTION_DDOT":0},{"OBJECT_NAME":"ONEWEB-0052","OBJECT_ID":"2020-008AB","EPOCH":"2025-09-12T19:28:08.054976","MEAN_MOTION":13.10374246,"ECCENTRICITY":0.00022582,"INCLINATION":87.8754,"RA_OF_ASC_NODE":91.5532,"ARG_OF_PERICENTER":86.8851,"MEAN_ANOMALY":273.2535,"EPHEMERIS_TYPE":0,"CLASSIFICATION_TYPE":"U","NORAD_CAT_ID":45156,"ELEMENT_SET_NO":999,"REV_AT_EPOCH":27161,"BSTAR":-0.0015591228,"MEAN_MOTION_DOT":-5.32e-6,"MEAN_MOTION_DDOT":0},{"OBJECT_NAME":"ONEWEB-0053","OBJECT_ID":"2020-008AC","EPOCH":"2025-09-13T06:02:45.131136","MEAN_MOTION":13.10369843,"ECCENTRICITY":0.0001604,"INCLINATION":87.8735,"RA_OF_ASC_NODE":91.5188,"ARG_OF_PERICENTER":74.4705,"MEAN_ANOMALY":285.6599,"EPHEMERIS_TYPE":0,"CLASSIFICATION_TYPE":"U","NORAD_CAT_ID":45157,"ELEMENT_SET_NO":999,"REV_AT_EPOCH":27164,"BSTAR":-0.00079386833,"MEAN_MOTION_DOT":-2.64e-6,"MEAN_MOTION_DDOT":0},{"OBJECT_NAME":"ONEWEB-0054","OBJECT_ID":"2020-008AD","EPOCH":"2025-09-12T23:33:09.072864","MEAN_MOTION":13.10376183,"ECCENTRICITY":0.0001741,"INCLINATION":87.8744,"RA_OF_ASC_NODE":91.546,"ARG_OF_PERICENTER":87.4803,"MEAN_ANOMALY":272.6524,"EPHEMERIS_TYPE":0,"CLASSIFICATION_TYPE":"U","NORAD_CAT_ID":45158,"ELEMENT_SET_NO":999,"REV_AT_EPOCH":27172,"BSTAR":0.00057869876,"MEAN_MOTION_DOT":2.15e-6,"MEAN_MOTION_DDOT":0},{"OBJECT_NAME":"ONEWEB-0056","OBJECT_ID":"2020-008AE","EPOCH":"2025-09-13T06:25:27.792192","MEAN_MOTION":13.10373496,"ECCENTRICITY":0.00017075,"INCLINATION":87.874,"RA_OF_ASC_NODE":91.4862,"ARG_OF_PERICENTER":85.7107,"MEAN_ANOMALY":274.4215,"EPHEMERIS_TYPE":0,"CLASSIFICATION_TYPE":"U","NORAD_CAT_ID":45159,"ELEMENT_SET_NO":999,"REV_AT_EPOCH":27191,"BSTAR":-0.0020987888,"MEAN_MOTION_DOT":-7.2e-6,"MEAN_MOTION_DDOT":0},{"OBJECT_NAME":"ONEWEB-0057","OBJECT_ID":"2020-008AF","EPOCH":"2025-09-12T23:16:24.407616","MEAN_MOTION":13.10375727,"ECCENTRICITY":0.00018121,"INCLINATION":87.8741,"RA_OF_ASC_NODE":91.5596,"ARG_OF_PERICENTER":82.3232,"MEAN_ANOMALY":277.8101,"EPHEMERIS_TYPE":0,"CLASSIFICATION_TYPE":"U","NORAD_CAT_ID":45160,"ELEMENT_SET_NO":999,"REV_AT_EPOCH":27204,"BSTAR":-0.0010959465,"MEAN_MOTION_DOT":-3.7e-6,"MEAN_MOTION_DDOT":0},{"OBJECT_NAME":"ONEWEB-0058","OBJECT_ID":"2020-008AG","EPOCH":"2025-09-13T06:17:18.353472","MEAN_MOTION":13.10371852,"ECCENTRICITY":0.00015023,"INCLINATION":87.8734,"RA_OF_ASC_NODE":91.5111,"ARG_OF_PERICENTER":82.6095,"MEAN_ANOMALY":277.5203,"EPHEMERIS_TYPE":0,"CLASSIFICATION_TYPE":"U","NORAD_CAT_ID":45161,"ELEMENT_SET_NO":999,"REV_AT_EPOCH":27215,"BSTAR":-0.0018347535,"MEAN_MOTION_DOT":-6.28e-6,"MEAN_MOTION_DDOT":0},{"OBJECT_NAME":"ONEWEB-0059","OBJECT_ID":"2020-008AH","EPOCH":"2025-09-13T06:12:19.051776","MEAN_MOTION":13.10372406,"ECCENTRICITY":0.00015219,"INCLINATION":87.8735,"RA_OF_ASC_NODE":91.5122,"ARG_OF_PERICENTER":86.1252,"MEAN_ANOMALY":274.005,"EPHEMERIS_TYPE":0,"CLASSIFICATION_TYPE":"U","NORAD_CAT_ID":45162,"ELEMENT_SET_NO":999,"REV_AT_EPOCH":27205,"BSTAR":-0.0014200699,"MEAN_MOTION_DOT":-4.83e-6,"MEAN_MOTION_DDOT":0},{"OBJECT_NAME":"ONEWEB-0062","OBJECT_ID":"2020-008AJ","EPOCH":"2025-09-12T23:29:34.054368","MEAN_MOTION":13.10376328,"ECCENTRICITY":0.00014887,"INCLINATION":87.874,"RA_OF_ASC_NODE":91.5456,"ARG_OF_PERICENTER":96.7498,"MEAN_ANOMALY":263.3799,"EPHEMERIS_TYPE":0,"CLASSIFICATION_TYPE":"U","NORAD_CAT_ID":45163,"ELEMENT_SET_NO":999,"REV_AT_EPOCH":27188,"BSTAR":0.00024338875,"MEAN_MOTION_DOT":9.8e-7,"MEAN_MOTION_DDOT":0},{"OBJECT_NAME":"ONEWEB-0065","OBJECT_ID":"2020-008AK","EPOCH":"2025-09-13T06:20:40.868160","MEAN_MOTION":13.1037205,"ECCENTRICITY":0.00020297,"INCLINATION":87.8734,"RA_OF_ASC_NODE":91.5141,"ARG_OF_PERICENTER":85.3574,"MEAN_ANOMALY":274.7785,"EPHEMERIS_TYPE":0,"CLASSIFICATION_TYPE":"U","NORAD_CAT_ID":45164,"ELEMENT_SET_NO":999,"REV_AT_EPOCH":27161,"BSTAR":-0.0019422111,"MEAN_MOTION_DOT":-6.65e-6,"MEAN_MOTION_DDOT":0},{"OBJECT_NAME":"ONEWEB-0066","OBJECT_ID":"2020-020A","EPOCH":"2025-09-13T06:22:38.051616","MEAN_MOTION":13.11416692,"ECCENTRICITY":0.00017153,"INCLINATION":87.8779,"RA_OF_ASC_NODE":76.2293,"ARG_OF_PERICENTER":79.9674,"MEAN_ANOMALY":280.1648,"EPHEMERIS_TYPE":0,"CLASSIFICATION_TYPE":"U","NORAD_CAT_ID":45424,"ELEMENT_SET_NO":999,"REV_AT_EPOCH":26638,"BSTAR":0.0010458032,"MEAN_MOTION_DOT":3.83e-6,"MEAN_MOTION_DDOT":0},{"OBJECT_NAME":"ONEWEB-0067","OBJECT_ID":"2020-020B","EPOCH":"2025-09-13T05:26:41.326080","MEAN_MOTION":13.1141822,"ECCENTRICITY":0.00017668,"INCLINATION":87.8766,"RA_OF_ASC_NODE":76.1432,"ARG_OF_PERICENTER":83.684,"MEAN_ANOMALY":276.4489,"EPHEMERIS_TYPE":0,"CLASSIFICATION_TYPE":"U","NORAD_CAT_ID":45425,"ELEMENT_SET_NO":999,"REV_AT_EPOCH":26643,"BSTAR":-0.0014397247,"MEAN_MOTION_DOT":-4.98e-6,"MEAN_MOTION_DDOT":0},{"OBJECT_NAME":"ONEWEB-0080","OBJECT_ID":"2020-020C","EPOCH":"2025-09-13T05:39:52.859808","MEAN_MOTION":13.1141757,"ECCENTRICITY":0.00013335,"INCLINATION":87.8785,"RA_OF_ASC_NODE":76.2368,"ARG_OF_PERICENTER":86.3231,"MEAN_ANOMALY":273.8049,"EPHEMERIS_TYPE":0,"CLASSIFICATION_TYPE":"U","NORAD_CAT_ID":45426,"ELEMENT_SET_NO":999,"REV_AT_EPOCH":26640,"BSTAR":-0.0015466214,"MEAN_MOTION_DOT":-5.35e-6,"MEAN_MOTION_DDOT":0},{"OBJECT_NAME":"ONEWEB-0090","OBJECT_ID":"2020-020D","EPOCH":"2025-09-13T06:07:59.065536","MEAN_MOTION":13.11414709,"ECCENTRICITY":0.00014896,"INCLINATION":87.8751,"RA_OF_ASC_NODE":76.2333,"ARG_OF_PERICENTER":86.0576,"MEAN_ANOMALY":274.0723,"EPHEMERIS_TYPE":0,"CLASSIFICATION_TYPE":"U","NORAD_CAT_ID":45427,"ELEMENT_SET_NO":999,"REV_AT_EPOCH":26637,"BSTAR":0.0036748024,"MEAN_MOTION_DOT":1.315e-5,"MEAN_MOTION_DDOT":0},{"OBJECT_NAME":"ONEWEB-0061","OBJECT_ID":"2020-020E","EPOCH":"2025-09-13T05:04:17.763744","MEAN_MOTION":13.11412976,"ECCENTRICITY":0.00016189,"INCLINATION":87.8771,"RA_OF_ASC_NODE":76.2233,"ARG_OF_PERICENTER":88.2106,"MEAN_ANOMALY":271.9207,"EPHEMERIS_TYPE":0,"CLASSIFICATION_TYPE":"U","NORAD_CAT_ID":45428,"ELEMENT_SET_NO":999,"REV_AT_EPOCH":26632,"BSTAR":-0.00090128594,"MEAN_MOTION_DOT":-3.07e-6,"MEAN_MOTION_DDOT":0},{"OBJECT_NAME":"ONEWEB-0081","OBJECT_ID":"2020-020F","EPOCH":"2025-09-13T04:37:39.040608","MEAN_MOTION":13.11416459,"ECCENTRICITY":0.00015887,"INCLINATION":87.876,"RA_OF_ASC_NODE":76.2457,"ARG_OF_PERICENTER":80.279,"MEAN_ANOMALY":279.8518,"EPHEMERIS_TYPE":0,"CLASSIFICATION_TYPE":"U","NORAD_CAT_ID":45429,"ELEMENT_SET_NO":999,"REV_AT_EPOCH":26643,"BSTAR":0.00093038788,"MEAN_MOTION_DOT":3.42e-6,"MEAN_MOTION_DDOT":0},{"OBJECT_NAME":"ONEWEB-0069","OBJECT_ID":"2020-020G","EPOCH":"2025-09-13T06:11:38.284800","MEAN_MOTION":13.11418717,"ECCENTRICITY":0.00017795,"INCLINATION":87.8781,"RA_OF_ASC_NODE":76.2276,"ARG_OF_PERICENTER":86.2681,"MEAN_ANOMALY":273.8651,"EPHEMERIS_TYPE":0,"CLASSIFICATION_TYPE":"U","NORAD_CAT_ID":45430,"ELEMENT_SET_NO":999,"REV_AT_EPOCH":26637,"BSTAR":0.0015097194,"MEAN_MOTION_DOT":5.48e-6,"MEAN_MOTION_DDOT":0},{"OBJECT_NAME":"ONEWEB-0031","OBJECT_ID":"2020-020H","EPOCH":"2025-09-12T22:11:52.554912","MEAN_MOTION":13.11415425,"ECCENTRICITY":0.00015258,"INCLINATION":87.8778,"RA_OF_ASC_NODE":76.3228,"ARG_OF_PERICENTER":95.5835,"MEAN_ANOMALY":264.5467,"EPHEMERIS_TYPE":0,"CLASSIFICATION_TYPE":"U","NORAD_CAT_ID":45431,"ELEMENT_SET_NO":999,"REV_AT_EPOCH":26631,"BSTAR":-0.0020175236,"MEAN_MOTION_DOT":-7.02e-6,"MEAN_MOTION_DDOT":0}]
